OBJECT_NAME,OBJECT_ID,EPOCH,MEAN_MOTION,ECCENTRICITY,INCLINATION,RA_OF_ASC_NODE,ARG_OF_PERICENTER,MEAN_ANOMALY,EPHEMERIS_TYPE,CLASSIFICATION_TYPE,NORAD_CAT_ID,ELEMENT_SET_NO,REV_AT_EPOCH,BSTAR,MEAN_MOTION_DOT,MEAN_MOTION_DDOT
GALAXY 16 (G-16),2006-023A,2026-06-05T03:45:07.583328,1.00269008,.0002833,0.0086,184.7291,251.9959,134.1481,0,U,29236,999,7285,0,-.114E-5,0
EUTELSAT 33F,2006-032A,2026-06-05T03:24:26.366112,1.00273540,.0003629,1.6300,82.3788,347.2867,268.1184,0,U,29270,999,4718,0,.168E-5,0
JCSAT-3A,2006-033A,2026-06-05T00:26:11.712768,1.00272554,.0002243,0.0200,297.5307,141.5844,308.8915,0,U,29272,999,4761,0,-.332E-5,0
KOREASAT 5 (MUGUNGWHA 5),2006-034A,2026-06-05T00:21:57.121344,1.00274698,.0001456,1.7534,83.1323,28.3399,260.5188,0,U,29349,999,4119,0,-.346E-5,0
DIRECTV 9S,2006-043A,2026-06-05T02:46:02.175744,1.00271960,.0005176,2.3892,81.0466,3.8907,108.9395,0,U,29494,999,5126,0,-.102E-5,0
OPTUS D1,2006-043B,2026-06-04T21:07:45.238080,1.00272628,.0003831,3.0028,79.8068,350.0279,292.4231,0,U,29495,999,7199,0,-.171E-5,0
BADR-4,2006-051A,2026-06-04T17:50:03.090912,1.00450212,.00078927,1.9707,81.2738,161.5231,306.4291,0,U,29526,999,5114,0,.167E-5,0
WILDBLUE-1,2006-054A,2026-06-04T14:44:06.739296,1.00271660,.00017859,2.7704,80.6387,5.0378,277.2023,0,U,29643,999,5366,0,-.38E-6,0
SKYNET 5A,2007-007B,2026-06-04T21:27:21.536064,1.00268904,.0004068,5.2706,73.8872,8.2923,228.1874,0,U,30794,999,7057,0,-.26E-5,0
ANIK F3,2007-009A,2026-06-05T02:41:10.142880,1.00270936,.000282,1.1657,83.9929,349.6450,101.4794,0,U,31102,999,4644,0,.11E-6,0
ASTRA 1L,2007-016A,2026-06-05T05:12:22.642272,1.00271231,.0005463,1.2904,81.6770,2.2972,223.2852,0,U,31306,999,4486,0,-.172E-5,0
GALAXY 17 (G-17),2007-016B,2026-06-05T05:34:57.032256,1.00272989,.0004938,2.9415,80.0511,11.7836,160.5764,0,U,31307,999,6968,0,-.194E-5,0
INTELSAT 11 (IS-11),2007-044B,2026-06-04T15:03:45.055584,0.99053533,.00016504,3.5325,78.8209,74.4904,146.6760,0,U,32253,999,6832,0,-.139E-5,0
WGS F1 (USA 195),2007-046A,2026-06-04T11:38:59.552736,1.00272078,.00005704,0.0505,94.0918,318.3690,332.7373,0,U,32258,999,5220,0,-.255E-5,0
SKYNET 5B,2007-056B,2026-06-05T03:12:38.802816,1.00274236,.0003752,5.2231,73.6447,356.6925,256.4898,0,U,32294,999,6807,0,.151E-5,0
ASTRA 4A,2007-057A,2026-06-04T23:51:04.834080,1.00273538,.0002616,0.0159,320.3279,119.0919,176.5927,0,U,32299,999,5152,0,.45E-6,0
HORIZONS-2,2007-063B,2026-06-05T03:30:00.202752,1.00273497,.000418,2.5707,80.7728,352.2261,159.3069,0,U,32388,999,6769,0,-.242E-5,0
THURAYA-3,2008-001A,2026-06-05T04:17:21.789024,1.00009968,.0000965,5.9688,35.7800,146.7302,222.8514,0,U,32404,999,6737,0,-.146E-5,0
THOR 5,2008-006A,2026-06-05T03:14:49.786080,1.00270007,.0002762,0.0104,336.9048,110.0497,214.5686,0,U,32487,999,6719,0,0,0
AMC-14,2008-011A,2026-05-27T17:37:22.569600,1.00350219,.00499765,23.9628,20.7255,92.2727,95.7206,0,U,32708,999,6796,0,-.2E-7,0
DIRECTV 11,2008-013A,2026-06-04T21:38:42.268704,1.00270355,.0000575,0.0153,150.9196,236.0221,91.8989,0,U,32729,999,4547,0,-.113E-5,0
ICO G1,2008-016A,2026-06-04T14:49:54.672960,1.00271760,.00023036,5.5295,36.1728,22.5270,323.9697,0,U,32763,999,6641,0,-.162E-5,0
VINASAT-1,2008-018A,2026-06-04T14:11:21.992064,1.00268461,.00014439,0.0162,309.3801,139.3983,149.0364,0,U,32767,999,6646,0,-.316E-5,0
STAR ONE C2,2008-018B,2026-06-05T04:12:54.660096,1.00269788,.0002944,1.2100,82.5722,359.0332,170.2356,0,U,32768,999,6653,0,-.264E-5,0
AMOS-3,2008-022A,2026-06-05T03:23:41.437248,1.00470370,.0001875,0.4237,86.4317,57.1431,191.0852,0,U,32794,999,8221,0,.168E-5,0
GALAXY 18 (G-18),2008-024A,2026-06-05T03:49:28.793856,1.00271772,.0003286,0.0126,40.6774,43.4911,103.7894,0,U,32951,999,4573,0,.37E-6,0
ZHONGXING-9,2008-028A,2026-06-05T04:27:21.852576,1.00269829,.0004865,0.7382,85.5090,329.7073,357.6194,0,U,33051,999,6591,0,-.236E-5,0
SKYNET 5C,2008-030A,2026-06-05T03:09:57.754080,1.00271173,.0004267,3.7577,77.1823,6.2171,199.8858,0,U,33055,999,6583,0,-.128E-5,0
TURKSAT 3A,2008-030B,2026-06-05T03:26:56.124960,1.00271721,.0005437,0.0680,83.4705,341.8617,281.9627,0,U,33056,999,5223,0,.158E-5,0
INTELSAT 25 (IS-25),2008-034A,2026-06-05T02:22:26.940288,0.99015631,.0001772,2.6771,80.4528,14.3380,9.9907,0,U,33153,999,6557,0,-.174E-5,0
ECHOSTAR 11,2008-035A,2026-06-05T02:43:47.391744,1.00271905,.0002624,0.9734,84.3183,335.3578,125.0271,0,U,33207,999,5109,0,-.46E-6,0
SUPERBIRD-C2,2008-038A,2026-06-05T00:28:26.499360,1.00273884,.0006079,2.3293,81.4174,19.5835,295.5577,0,U,33274,999,10560,0,-.294E-5,0
