GALAXY 16 (G-16)        
1 29236U 06023A   26156.15633777 -.00000114  00000+0  00000+0 0  9997
2 29236   0.0086 184.7291 0002833 251.9959 134.1481  1.00269008 72856
EUTELSAT 33F            
1 29270U 06032A   26156.14197183  .00000168  00000+0  00000+0 0  9998
2 29270   1.6300  82.3788 0003629 347.2867 268.1184  1.00273540 47187
JCSAT-3A                
1 29272U 06033A   26156.01819112 -.00000332  00000+0  00000+0 0  9994
2 29272   0.0200 297.5307 0002243 141.5844 308.8915  1.00272554 47615
KOREASAT 5 (MUGUNGWHA 5)
1 29349U 06034A   26156.01524446 -.00000346  00000+0  00000+0 0  9998
2 29349   1.7534  83.1323 0001456  28.3399 260.5188  1.00274698 41191
DIRECTV 9S              
1 29494U 06043A   26156.11530296 -.00000102  00000+0  00000+0 0  9990
2 29494   2.3892  81.0466 0005176   3.8907 108.9395  1.00271960 51260
OPTUS D1                
1 29495U 06043B   26155.88038470 -.00000171  00000+0  00000+0 0  9997
2 29495   3.0028  79.8068 0003831 350.0279 292.4231  1.00272628 71990
BADR-4                  
1 29526U 06051A   26155.74309133  .00000167  00000+0  00000+0 0  9997
2 29526   1.9707  81.2738 0007892 161.5231 306.4291  1.00450212 51145
WILDBLUE-1              
1 29643U 06054A   26155.61396689 -.00000038  00000+0  00000+0 0  9996
2 29643   2.7704  80.6387 0001785   5.0378 277.2023  1.00271660 53668
SKYNET 5A               
1 30794U 07007B   26155.89399926 -.00000260  00000+0  00000+0 0  9998
2 30794   5.2706  73.8872 0004068   8.2923 228.1874  1.00268904 70573
ANIK F3                 
1 31102U 07009A   26156.11192295  .00000011  00000+0  00000+0 0  9993
2 31102   1.1657  83.9929 0002820 349.6450 101.4794  1.00270936 46444
ASTRA 1L                
1 31306U 07016A   26156.21692873 -.00000172  00000+0  00000+0 0  9994
2 31306   1.2904  81.6770 0005463   2.2972 223.2852  1.00271231 44863
GALAXY 17 (G-17)        
1 31307U 07016B   26156.23260454 -.00000194  00000+0  00000+0 0  9997
2 31307   2.9415  80.0511 0004938  11.7836 160.5764  1.00272989 69688
INTELSAT 11 (IS-11)     
1 32253U 07044B   26155.62760481 -.00000139  00000+0  00000+0 0  9995
2 32253   3.5325  78.8209 0001650  74.4904 146.6760  0.99053533 68325
WGS F1 (USA 195)        
1 32258U 07046A   26155.48541149 -.00000255  00000+0  00000+0 0  9993
2 32258   0.0505  94.0918 0000570 318.3690 332.7373  1.00272078 52209
SKYNET 5B               
1 32294U 07056B   26156.13378244  .00000151  00000+0  00000+0 0  9995
2 32294   5.2231  73.6447 0003752 356.6925 256.4898  1.00274236 68077
ASTRA 4A                
1 32299U 07057A   26155.99380595  .00000045  00000+0  00000+0 0  9998
2 32299   0.0159 320.3279 0002616 119.0919 176.5927  1.00273538 51522
HORIZONS-2              
1 32388U 07063B   26156.14583568 -.00000242  00000+0  00000+0 0  9997
2 32388   2.5707  80.7728 0004180 352.2261 159.3069  1.00273497 67697
THURAYA-3               
1 32404U 08001A   26156.17872441 -.00000146  00000+0  00000+0 0  9996
2 32404   5.9688  35.7800 0000965 146.7302 222.8514  1.00009968 67377
THOR 5                  
1 32487U 08006A   26156.13529845  .00000000  00000+0  00000+0 0  9993
2 32487   0.0104 336.9048 0002762 110.0497 214.5686  1.00270007 67195
AMC-14                  
1 32708U 08011A   26147.73428900 -.00000002  00000+0  00000+0 0  9994
2 32708  23.9628  20.7255 0049976  92.2727  95.7206  1.00350219 67965
DIRECTV 11              
1 32729U 08013A   26155.90187811 -.00000113  00000+0  00000+0 0  9993
2 32729   0.0153 150.9196 0000575 236.0221  91.8989  1.00270355 45475
ICO G1                  
1 32763U 08016A   26155.61799390 -.00000162  00000+0  00000+0 0  9997
2 32763   5.5295  36.1728 0002303  22.5270 323.9697  1.00271760 66412
VINASAT-1               
1 32767U 08018A   26155.59122676 -.00000316  00000+0  00000+0 0  9998
2 32767   0.0162 309.3801 0001443 139.3983 149.0364  1.00268461 66465
STAR ONE C2             
1 32768U 08018B   26156.17563264 -.00000264  00000+0  00000+0 0  9998
2 32768   1.2100  82.5722 0002944 359.0332 170.2356  1.00269788 66537
AMOS-3                  
1 32794U 08022A   26156.14145182  .00000168  00000+0  00000+0 0  9996
2 32794   0.4237  86.4317 0001875  57.1431 191.0852  1.00470370 82215
GALAXY 18 (G-18)        
1 32951U 08024A   26156.15936104  .00000037  00000+0  00000+0 0  9991
2 32951   0.0126  40.6774 0003286  43.4911 103.7894  1.00271772 45738
ZHONGXING-9             
1 33051U 08028A   26156.18566959 -.00000236  00000+0  00000+0 0  9999
2 33051   0.7382  85.5090 0004865 329.7073 357.6194  1.00269829 65918
SKYNET 5C               
1 33055U 08030A   26156.13191845 -.00000128  00000+0  00000+0 0  9999
2 33055   3.7577  77.1823 0004267   6.2171 199.8858  1.00271173 65833
TURKSAT 3A              
1 33056U 08030B   26156.14370515  .00000158  00000+0  00000+0 0  9996
2 33056   0.0680  83.4705 0005437 341.8617 281.9627  1.00271721 52237
INTELSAT 25 (IS-25)     
1 33153U 08034A   26156.09892292 -.00000174  00000+0  00000+0 0  9992
2 33153   2.6771  80.4528 0001772  14.3380   9.9907  0.99015631 65574
ECHOSTAR 11             
1 33207U 08035A   26156.11374296 -.00000046  00000+0  00000+0 0  9993
2 33207   0.9734  84.3183 0002624 335.3578 125.0271  1.00271905 51093
SUPERBIRD-C2            
1 33274U 08038A   26156.01975115 -.00000294  00000+0  00000+0 0  9991
2 33274   2.3293  81.4174 0006079  19.5835 295.5577  1.00273884105603
